ONEWEB-0054             
1 45158U 20008AD  26159.37794743 -.00000560  00000+0 -16394-2 0  9997
2 45158  87.8851  38.0209 0001860  83.2283 276.9056 13.10370949306871
ONEWEB-0056             
1 45159U 20008AE  26159.34964193  .00000632  00000+0  17755-2 0  9993
2 45159  87.8845  38.0203 0001922  90.5118 269.6230 13.10372996307021
ONEWEB-0057             
1 45160U 20008AF  26159.21375916 -.00000167  00000+0 -51329-3 0  9991
2 45160  87.8841  38.0602 0002239  75.4920 284.6455 13.10369158307175
ONEWEB-0058             
1 45161U 20008AG  26159.20049426  .00000438  00000+0  12188-2 0  9993
2 45161  87.8840  38.0691 0001577  78.7677 281.3628 13.10370021307247
ONEWEB-0059             
1 45162U 20008AH  26159.19717884  .00000647  00000+0  18158-2 0  9997
2 45162  87.8837  38.0687 0001753  75.8283 284.3039 13.10371183307144
ONEWEB-0062             
1 45163U 20008AJ  26159.37283519 -.00000458  00000+0 -13472-2 0  9997
2 45163  87.8846  38.0205 0001381  87.2710 272.8576 13.10370143307031
ONEWEB-0065             
1 45164U 20008AK  26159.40604676  .00000240  00000+0  64996-3 0  9998
2 45164  87.8850  38.0219 0002187  82.3377 277.7999 13.10375377306735
ONEWEB-0066             
1 45424U 20020A   26159.52515853  .00000492  00000+0  13510-2 0  9996
2 45424  87.8898  22.7953 0001715  79.9297 280.2024 13.11418833301548
ONEWEB-0067             
1 45425U 20020B   26159.18159895 -.00000487  00000+0 -14103-2 0  9994
2 45425  87.8915  22.7839 0002000  82.9002 277.2354 13.11422622301552
ONEWEB-0080             
1 45426U 20020C   26159.86778051 -.00000456  00000+0 -13237-2 0  9994
2 45426  87.8902  22.7228 0001530  88.4902 271.6401 13.11416132301615
ONEWEB-0090             
1 45427U 20020D   26159.51511881  .00000111  00000+0  27747-3 0  9991
2 45427  87.8905  22.7975 0001802  84.6979 275.4354 13.11419488301539
ONEWEB-0061             
1 45428U 20020E   26159.85224987  .00000248  00000+0  66387-3 0  9991
2 45428  87.8902  22.7151 0001754  83.4862 276.6466 13.11415607301533
ONEWEB-0081             
1 45429U 20020F   26159.37595990  .00000619  00000+0  17106-2 0  9990
2 45429  87.8899  22.8207 0001890  78.2150 281.9190 13.11418427301586
ONEWEB-0069             
1 45430U 20020G   26159.37778789  .00000626  00000+0  17313-2 0  9999
2 45430  87.8902  22.8231 0001834  81.5608 278.5728 13.11419324301512
ONEWEB-0031             
1 45431U 20020H   26159.18436138 -.00000452  00000+0 -13101-2 0  9998
2 45431  87.8892  22.8673 0001623  88.2089 271.9224 13.11416775301474
ONEWEB-0027             
1 45432U 20020J   26159.82709686 -.00000110  00000+0 -32431-3 0  9990
2 45432  87.9149   7.5256 0001820  97.0901 263.0436 13.16054428305253
ONEWEB-0064             
1 45433U 20020K   26159.33525544 -.00000609  00000+0 -17546-2 0  9998
2 45433  87.8897  22.8287 0001722  89.2293 270.9032 13.11416178301529
ONEWEB-0018             
1 45434U 20020L   26159.51998770  .00007769  00000+0  21846-1 0  9993
2 45434  87.8896  22.7916 0001817 185.1746 174.9363 13.11481521301491
ONEWEB-0083             
1 45435U 20020M   26159.35744830 -.00000031  00000+0 -12385-3 0  9999
2 45435  87.8905  22.8173 0001711  83.6823 276.4500 13.11418650301517
ONEWEB-0095             
1 45436U 20020N   26159.12010549 -.00000714  00000+0 -20525-2 0  9990
2 45436  87.8939  22.8767 0002864  97.1551 262.9903 13.11393189301484
ONEWEB-0085             
1 45438U 20020Q   26159.35716938 -.00000075  00000+0 -24668-3 0  9995
2 45438  87.8897  22.8246 0001798  84.2800 275.8533 13.11419809301514
ONEWEB-0096             
1 45439U 20020R   26159.35903481  .00000050  00000+0  10398-3 0  9993
2 45439  87.8906  22.8195 0001822  86.6503 273.4834 13.11424056301500
ONEWEB-0037             
1 45440U 20020S   26159.85323168  .00000180  00000+0  46901-3 0  9991
2 45440  87.8914  22.6949 0001882  85.8346 274.2998 13.11910637301604
ONEWEB-0042             
1 45441U 20020T   26159.34868335 -.00000563  00000+0 -16242-2 0  9997
2 45441  87.8903  22.8181 0001868  81.4401 278.6939 13.11417759301500
ONEWEB-0098             
1 45442U 20020U   26159.34458571 -.00000425  00000+0 -12342-2 0  9999
2 45442  87.8900  22.8281 0001715  85.7754 274.3569 13.11417461301487
ONEWEB-0055             
1 45443U 20020V   26159.85734979  .00000051  00000+0  10907-3 0  9994
2 45443  87.8899  22.7245 0001728  85.7236 274.4090 13.11413078301528
ONEWEB-0093             
1 45444U 20020W   26159.37948872  .00000576  00000+0  15895-2 0  9993
2 45444  87.8905  22.8124 0002038  74.6726 285.4627 13.11418324301527
ONEWEB-0029             
1 45445U 20020X   26159.86439509 -.00000284  00000+0 -83842-3 0  9996
2 45445  87.8891  22.7260 0001802  75.6334 284.4994 13.11417729301564
ONEWEB-0068             
1 45446U 20020Y   26159.15033042  .00000575  00000+0  15864-2 0  9990
2 45446  87.8905  22.8618 0001817  77.9114 282.2217 13.11417011301418
ONEWEB-0046             
1 45447U 20020Z   26159.37086870  .00000505  00000+0  13878-2 0  9998
2 45447  87.8897  22.8247 0002030  80.0182 280.1175 13.11419322301456
