OBJECT_NAME,OBJECT_ID,EPOCH,MEAN_MOTION,ECCENTRICITY,INCLINATION,RA_OF_ASC_NODE,ARG_OF_PERICENTER,MEAN_ANOMALY,EPHEMERIS_TYPE,CLASSIFICATION_TYPE,NORAD_CAT_ID,ELEMENT_SET_NO,REV_AT_EPOCH,BSTAR,MEAN_MOTION_DOT,MEAN_MOTION_DDOT
ONEWEB-0054,2020-008AD,2026-06-08T09:04:14.657088,13.10370949,.0001861,87.8851,38.0209,83.2283,276.9056,0,U,45158,999,30687,-.16394E-2,-.56E-5,0
ONEWEB-0056,2020-008AE,2026-06-08T08:23:29.061888,13.10372996,.0001923,87.8845,38.0203,90.5118,269.6230,0,U,45159,999,30702,.17755E-2,.632E-5,0
ONEWEB-0057,2020-008AF,2026-06-08T05:07:48.791424,13.10369158,.0002239,87.8841,38.0602,75.4920,284.6455,0,U,45160,999,30717,-.51329E-3,-.167E-5,0
ONEWEB-0058,2020-008AG,2026-06-08T04:48:42.704064,13.10370021,.0001577,87.8840,38.0691,78.7677,281.3628,0,U,45161,999,30724,.12188E-2,.438E-5,0
ONEWEB-0059,2020-008AH,2026-06-08T04:43:56.251776,13.10371183,.0001753,87.8837,38.0687,75.8283,284.3039,0,U,45162,999,30714,.18158E-2,.647E-5,0
ONEWEB-0062,2020-008AJ,2026-06-08T08:56:52.960416,13.10370143,.0001381,87.8846,38.0205,87.2710,272.8576,0,U,45163,999,30703,-.13472E-2,-.458E-5,0
ONEWEB-0065,2020-008AK,2026-06-08T09:44:42.440064,13.10375377,.0002187,87.8850,38.0219,82.3377,277.7999,0,U,45164,999,30673,.64996E-3,.24E-5,0
ONEWEB-0066,2020-020A,2026-06-08T12:36:13.696128,13.11418833,.0001715,87.8898,22.7953,79.9297,280.2024,0,U,45424,999,30154,.1351E-2,.492E-5,0
ONEWEB-0067,2020-020B,2026-06-08T04:21:30.149280,13.11422622,.0002,87.8915,22.7839,82.9002,277.2354,0,U,45425,999,30155,-.14103E-2,-.487E-5,0
ONEWEB-0080,2020-020C,2026-06-08T20:49:36.236064,13.11416132,.000153,87.8902,22.7228,88.4902,271.6401,0,U,45426,999,30161,-.13237E-2,-.456E-5,0
ONEWEB-0090,2020-020D,2026-06-08T12:21:46.265184,13.11419488,.0001802,87.8905,22.7975,84.6979,275.4354,0,U,45427,999,30153,.27747E-3,.111E-5,0
ONEWEB-0061,2020-020E,2026-06-08T20:27:14.388768,13.11415607,.0001754,87.8902,22.7151,83.4862,276.6466,0,U,45428,999,30153,.66387E-3,.248E-5,0
ONEWEB-0081,2020-020F,2026-06-08T09:01:22.935360,13.11418427,.000189,87.8899,22.8207,78.2150,281.9190,0,U,45429,999,30158,.17106E-2,.619E-5,0
ONEWEB-0069,2020-020G,2026-06-08T09:04:00.872832,13.11419324,.0001835,87.8902,22.8231,81.5608,278.5728,0,U,45430,999,30151,.17313E-2,.626E-5,0
ONEWEB-0031,2020-020H,2026-06-08T04:25:28.823232,13.11416775,.0001623,87.8892,22.8673,88.2089,271.9224,0,U,45431,999,30147,-.13101E-2,-.452E-5,0
ONEWEB-0027,2020-020J,2026-06-08T19:51:01.168704,13.16054428,.000182,87.9149,7.5256,97.0901,263.0436,0,U,45432,999,30525,-.32431E-3,-.11E-5,0
ONEWEB-0064,2020-020K,2026-06-08T08:02:46.070016,13.11416178,.0001722,87.8897,22.8287,89.2293,270.9032,0,U,45433,999,30152,-.17546E-2,-.609E-5,0
ONEWEB-0018,2020-020L,2026-06-08T12:28:46.937280,13.11481520,.0001818,87.8896,22.7916,185.1746,174.9363,0,U,45434,999,30149,.21846E-1,.7769E-4,0
ONEWEB-0083,2020-020M,2026-06-08T08:34:43.533120,13.11418650,.0001711,87.8905,22.8173,83.6823,276.4500,0,U,45435,999,30151,-.12385E-3,-.31E-6,0
ONEWEB-0095,2020-020N,2026-06-08T02:52:57.114336,13.11393189,.00028647,87.8939,22.8767,97.1551,262.9903,0,U,45436,999,30148,-.20525429E-2,-.714E-5,0
ONEWEB-0085,2020-020Q,2026-06-08T08:34:19.434432,13.11419809,.0001798,87.8897,22.8246,84.2800,275.8533,0,U,45438,999,30151,-.24668E-3,-.75E-6,0
ONEWEB-0096,2020-020R,2026-06-08T08:37:00.606720,13.11424056,.0001822,87.8906,22.8195,86.6503,273.4834,0,U,45439,999,30150,.10398E-3,.5E-6,0
ONEWEB-0037,2020-020S,2026-06-08T20:28:39.217152,13.11910637,.0001882,87.8914,22.6949,85.8346,274.2998,0,U,45440,999,30160,.46901E-3,.18E-5,0
ONEWEB-0042,2020-020T,2026-06-08T08:22:06.240576,13.11417759,.0001868,87.8903,22.8181,81.4401,278.6939,0,U,45441,999,30150,-.16242E-2,-.563E-5,0
ONEWEB-0098,2020-020U,2026-06-08T08:16:12.205344,13.11417461,.0001715,87.8900,22.8281,85.7754,274.3569,0,U,45442,999,30148,-.12342E-2,-.425E-5,0
ONEWEB-0055,2020-020V,2026-06-08T20:34:35.021856,13.11413078,.0001728,87.8899,22.7245,85.7236,274.4090,0,U,45443,999,30152,.10907E-3,.51E-6,0
ONEWEB-0093,2020-020W,2026-06-08T09:06:27.825408,13.11418324,.0002038,87.8905,22.8124,74.6726,285.4627,0,U,45444,999,30152,.15895E-2,.576E-5,0
ONEWEB-0029,2020-020X,2026-06-08T20:44:43.735776,13.11417729,.0001802,87.8891,22.7260,75.6334,284.4994,0,U,45445,999,30156,-.83842E-3,-.284E-5,0
ONEWEB-0068,2020-020Y,2026-06-08T03:36:28.548288,13.11417011,.00018179,87.8905,22.8618,77.9114,282.2217,0,U,45446,999,30141,.15864436E-2,.575E-5,0
ONEWEB-0046,2020-020Z,2026-06-08T08:54:03.054816,13.11419322,.0002031,87.8897,22.8247,80.0182,280.1175,0,U,45447,999,30145,.13878E-2,.505E-5,0
